CELESTIS-17 & SHERPA-FX1
1 47486U 21006CB  26068.64311433  .00007207  00000+0  24301-3 0  9993
2 47486  97.2397 112.1052 0006630 178.1385 181.9882 15.30994801284065
STARLINK-30701          
1 57950U 23148R   26068.24602432 -.00000625  00000+0 -89761-5 0  9999
2 57950  53.1629  26.3782 0000967  83.9632 276.1479 15.30193645138358
